{
  "type": "FeatureCollection",
  "name": "Mapulang Lupa Zones",
  "crs": { "type": "name", "properties": { "name": "urn:ogc:def:crs:OGC:1.3:CRS84" } },
  "features": [
    {
      "type": "Feature",
      "properties": {
        "zone_id": "Zone 1",
        "zone": "Zone 1",
        "zone_number": 1,
        "name": "North-East / Residence 3",
        "landmark": "Residence 3",
        "sector": "North-East (Expanded Eastern Corridor)",
        "center": [14.883500, 120.970000]
      },
      "geometry": {
        "type": "Polygon",
        "coordinates": [
          [
            [120.967200, 14.889400],
            [120.969000, 14.888500],
            [120.971000, 14.887000],
            [120.973000, 14.885000],
            [120.974000, 14.882500],
            [120.973500, 14.879800],
            [120.970000, 14.882000],
            [120.967000, 14.885500],
            [120.967200, 14.889400]
          ]
        ]
      }
    },
    {
      "type": "Feature",
      "properties": {
        "zone_id": "Zone 2",
        "zone": "Zone 2",
        "zone_number": 2,
        "name": "West / Residence 1",
        "landmark": "Pandi Residences 1 / Pasong Kalabaw",
        "sector": "West",
        "center": [14.882000, 120.958000]
      },
      "geometry": {
        "type": "Polygon",
        "coordinates": [
          [
            [120.955500, 14.881000],
            [120.956200, 14.883500],
            [120.961000, 14.884500],
            [120.961000, 14.880000],
            [120.955500, 14.881000]
          ]
        ]
      }
    },
    {
      "type": "Feature",
      "properties": {
        "zone_id": "Zone 3",
        "zone": "Zone 3",
        "zone_number": 3,
        "name": "East / Pandi Village 2",
        "landmark": "Pandi Village 2 (Atlantica)",
        "sector": "Central-East",
        "center": [14.879500, 120.971000]
      },
      "geometry": {
        "type": "Polygon",
        "coordinates": [
          [
            [120.973500, 14.879800],
            [120.971500, 14.877800],
            [120.969000, 14.876800],
            [120.970000, 14.879000],
            [120.970000, 14.882000],
            [120.973500, 14.879800]
          ]
        ]
      }
    },
    {
      "type": "Feature",
      "properties": {
        "zone_id": "Zone 4",
        "zone": "Zone 4",
        "zone_number": 4,
        "name": "North / Mitay 1",
        "landmark": "Mitay 1 (Upper Northern Corridor)",
        "sector": "North",
        "center": [14.887000, 120.962000]
      },
      "geometry": {
        "type": "Polygon",
        "coordinates": [
          [
            [120.956200, 14.883500],
            [120.957500, 14.886000],
            [120.959200, 14.887200],
            [120.961500, 14.888400],
            [120.963500, 14.889300],
            [120.965800, 14.889600],
            [120.967200, 14.889400],
            [120.967000, 14.885500],
            [120.961000, 14.884500],
            [120.956200, 14.883500]
          ]
        ]
      }
    },
    {
      "type": "Feature",
      "properties": {
        "zone_id": "Zone 5",
        "zone": "Zone 5",
        "zone_number": 5,
        "name": "Central Core / Sitio Gubat",
        "landmark": "Barangay Center / Sitio Gubat",
        "sector": "Central Core",
        "center": [14.882000, 120.965000]
      },
      "geometry": {
        "type": "Polygon",
        "coordinates": [
          [
            [120.961000, 14.884500],
            [120.967000, 14.885500],
            [120.970000, 14.882000],
            [120.970000, 14.879000],
            [120.965000, 14.878500],
            [120.961000, 14.880000],
            [120.961000, 14.884500]
          ]
        ]
      }
    },
    {
      "type": "Feature",
      "properties": {
        "zone_id": "Zone 6",
        "zone": "Zone 6",
        "zone_number": 6,
        "name": "South-East / Bangko St.",
        "landmark": "Bangko St. / Mag-asawang Sapa Road",
        "sector": "South-East",
        "center": [14.877500, 120.967000]
      },
      "geometry": {
        "type": "Polygon",
        "coordinates": [
          [
            [120.969000, 14.876800],
            [120.965500, 14.876200],
            [120.962000, 14.876500],
            [120.965000, 14.878500],
            [120.970000, 14.879000],
            [120.969000, 14.876800]
          ]
        ]
      }
    },
    {
      "type": "Feature",
      "properties": {
        "zone_id": "Zone 7",
        "zone": "Zone 7",
        "zone_number": 7,
        "name": "South-West / Barangka St.",
        "landmark": "Barangka St. / Pandi-Angat Road / Encampment One",
        "sector": "South-West",
        "center": [14.878500, 120.959500]
      },
      "geometry": {
        "type": "Polygon",
        "coordinates": [
          [
            [120.962000, 14.876500],
            [120.958500, 14.877500],
            [120.956500, 14.879000],
            [120.955500, 14.881000],
            [120.961000, 14.880000],
            [120.965000, 14.878500],
            [120.962000, 14.876500]
          ]
        ]
      }
    }
  ]
}
