{
  "type": "Feature",
  "properties": {
    "name": "Mapulang Lupa",
    "municipality": "Pandi",
    "province": "Bulacan",
    "note": "Barangay Mapulang Lupa boundary polygon — NE expanded (2026-08) to include full eastern residential corridor and river boundary."
  },
  "geometry": {
    "type": "Polygon",
    "coordinates": [
      [
        [120.955500, 14.881000],
        [120.956200, 14.883500],
        [120.957500, 14.886000],
        [120.959200, 14.887200],
        [120.961500, 14.888400],
        [120.963500, 14.889300],
        [120.965800, 14.889600],
        [120.967200, 14.889400],
        [120.969000, 14.888500],
        [120.971000, 14.887000],
        [120.973000, 14.885000],
        [120.974000, 14.882500],
        [120.973500, 14.879800],
        [120.971500, 14.877800],
        [120.969000, 14.876800],
        [120.965500, 14.876200],
        [120.962000, 14.876500],
        [120.958500, 14.877500],
        [120.956500, 14.879000],
        [120.955500, 14.881000]
      ]
    ]
  }
}