{
  "type": "Feature",
  "properties": {
    "name": "Mapulang Lupa",
    "municipality": "Pandi",
    "province": "Bulacan",
    "note": "Outline traced directly from the hand-drawn boundary supplied (pixel-traced and georeferenced against the previous boundary's known coordinates as calibration reference, accurate to roughly +/-15m over this area). Not an official/OSM-verified survey boundary."
  },
  "geometry": {
    "type": "Polygon",
    "coordinates": [
      [
        [
          120.956727,
          14.882268
        ],
        [
          120.957532,
          14.88332
        ],
        [
          120.958147,
          14.884203
        ],
        [
          120.960363,
          14.884271
        ],
        [
          120.960852,
          14.884756
        ],
        [
          120.961361,
          14.885283
        ],
        [
          120.962661,
          14.885444
        ],
        [
          120.963,
          14.88574
        ],
        [
          120.963192,
          14.885784
        ],
        [
          120.964299,
          14.88611
        ],
        [
          120.965001,
          14.886494
        ],
        [
          120.96564,
          14.886647
        ],
        [
          120.965747,
          14.886586
        ],
        [
          120.967198,
          14.886227
        ],
        [
          120.968434,
          14.886388
        ],
        [
          120.969884,
          14.886321
        ],
        [
          120.971293,
          14.885858
        ],
        [
          120.973065,
          14.885211
        ],
        [
          120.973517,
          14.884403
        ],
        [
          120.973455,
          14.883818
        ],
        [
          120.972588,
          14.882369
        ],
        [
          120.971548,
          14.881273
        ],
        [
          120.970337,
          14.880466
        ],
        [
          120.969637,
          14.879707
        ],
        [
          120.969086,
          14.878992
        ],
        [
          120.968192,
          14.878606
        ],
        [
          120.967298,
          14.878366
        ],
        [
          120.966338,
          14.878522
        ],
        [
          120.965591,
          14.878617
        ],
        [
          120.964377,
          14.878311
        ],
        [
          120.963655,
          14.877844
        ],
        [
          120.962845,
          14.877688
        ],
        [
          120.962014,
          14.87772
        ],
        [
          120.961012,
          14.877729
        ],
        [
          120.959966,
          14.877926
        ],
        [
          120.958962,
          14.878394
        ],
        [
          120.958234,
          14.879157
        ],
        [
          120.957313,
          14.87996
        ],
        [
          120.956413,
          14.88095
        ],
        [
          120.956348,
          14.881137
        ],
        [
          120.956727,
          14.882268
        ]
      ]
    ]
  }
}